BEESAT-7                
1 48084U 21022AN  23231.66539336  .00022599  00000+0  97665-3 0  9995
2 48084  97.4849 130.2802 0017888 106.3404 253.9801 15.22340031131311
BEESAT-8                
1 48085U 21022AP  23231.24241368  .00011048  00000+0  55081-3 0  9998
2 48085  97.4916 128.9984 0019058 110.8211 249.5066 15.17553402131742
LEDSAT                  
1 49069U 21073D   23232.13328375  .00009107  00000+0  48425-3 0  9997
2 49069  97.4783 301.9605 0022085 257.4733 102.4029 15.15286249110586
SPORT                   
1 55129U 98067UW  23231.92871454  .00141648  00000+0  69286-3 0  9990
2 55129  51.6276 349.9258 0006834 336.3620  23.7067 15.81319563 36584
OPTIMAL-1               
1 55183U 98067VA  23231.30117032  .01916193  11881-4  91600-3 0  9992
2 55183  51.6334 342.6246 0013668 330.8458  29.1796 16.20382464 35343
